NORAD_CAT_ID,OBJECT_NAME,OBJECT_TYPE,EPOCH,MEAN_MOTION,ECCENTRICITY,INCLINATION,RA_OF_ASC_NODE,ARG_OF_PERICENTER,MEAN_ANOMALY,BSTAR,MEAN_MOTION_DOT,MEAN_MOTION_DDOT,TLE_LINE0,TLE_LINE1,TLE_LINE2,SEMIMAJOR_AXIS,PERIOD,APOGEE,PERIGEE,DECAYED
53257.0,STARLINK-4144,PAYLOAD,2023-02-06 19:17:52,15.08846202,0.0001117,53.2181,212.8987,87.7575,272.3545,9.5379e-05,1.231e-05,0.0,0 STARLINK-4144,1 53257U 22086R   23037.80408304  .00001231  00000-0  95379-4 0  9996,2 53257  53.2181 212.8987 0001117  87.7575 272.3545 15.08846202 30940,6917.861,95.437,540.499,538.954,0.0
53257.0,STARLINK-4144,PAYLOAD,2023-02-07 04:50:11,15.08842951,0.0001239,53.2184,211.1149,78.3806,281.7325,9.7775e-05,1.269e-05,0.0,0 STARLINK-4144,1 53257U 22086R   23038.20152562  .00001269  00000-0  97775-4 0  9996,2 53257  53.2184 211.1149 0001239  78.3806 281.7325 15.08842951 30827,6917.871,95.437,540.593,538.879,0.0
53257.0,STARLINK-4144,PAYLOAD,2023-02-07 11:11:44,15.08840523,0.0001271,53.2183,209.9256,79.493,280.6205,9.2869e-05,1.19e-05,0.0,0 STARLINK-4144,1 53257U 22086R   23038.46648744  .00001190  00000-0  92869-4 0  9998,2 53257  53.2183 209.9256 0001271  79.4930 280.6205 15.08840523 31049,6917.879,95.438,540.623,538.865,0.0
53257.0,STARLINK-4144,PAYLOAD,2023-02-07 17:33:16,15.08842785,0.0001308,53.2182,208.7365,75.2735,284.8402,0.00010157,1.329e-05,0.0,0 STARLINK-4144,1 53257U 22086R   23038.73144596  .00001329  00000-0  10157-3 0  9997,2 53257  53.2182 208.7365 0001308  75.2735 284.8402 15.08842785 31085,6917.872,95.437,540.642,538.832,0.0
53257.0,STARLINK-4144,PAYLOAD,2023-02-08 04:40:59,15.08837476,0.0001048,53.2181,206.6542,84.2987,275.8125,3.6933e-05,3e-06,0.0,0 STARLINK-4144,1 53257U 22086R   23039.19512979  .00000300  00000-0  36933-4 0  9991,2 53257  53.2181 206.6542 0001048  84.2987 275.8125 15.08837476 30978,6917.888,95.438,540.478,539.028,0.0
53257.0,STARLINK-4144,PAYLOAD,2023-02-08 14:13:18,15.08839157,0.0001034,53.2186,204.8701,82.1523,277.9587,3.4736e-05,2.65e-06,0.0,0 STARLINK-4144,1 53257U 22086R   23039.59256967  .00000265  00000-0  34736-4 0  9996,2 53257  53.2186 204.8701 0001034  82.1523 277.9587 15.08839157 31219,6917.883,95.438,540.463,539.033,0.0
53257.0,STARLINK-4144,PAYLOAD,2023-02-08 20:34:50,15.08848123,0.0001192,53.2172,203.6811,76.1032,284.0093,0.00017676,2.527e-05,0.0,0 STARLINK-4144,1 53257U 22086R   23039.85752436  .00002527  00000-0  17676-3 0  9993,2 53257  53.2172 203.6811 0001192  76.1032 284.0093 15.08848123 31254,6917.856,95.437,540.545,538.896,0.0
53257.0,STARLINK-4144,PAYLOAD,2023-02-09 17:14:51,15.08843602,9.16e-05,53.2161,199.8132,82.1257,277.9839,0.00013648,1.885e-05,0.0,0 STARLINK-4144,1 53257U 22086R   23040.71864701  .00001885  00000-0  13648-3 0  9990,2 53257  53.2161 199.8132 0000916  82.1257 277.9839 15.08843602 31204,6917.869,95.437,540.368,539.101,0.0
53257.0,STARLINK-4144,PAYLOAD,2023-02-09 22:00:59,15.08855419,0.0001014,53.2183,198.9208,81.2424,278.8683,0.00023927,3.524e-05,0.0,0 STARLINK-4144,1 53257U 22086R   23040.91735963  .00003524  00000-0  23927-3 0  9992,2 53257  53.2183 198.9208 0001014  81.2424 278.8683 15.08855419 31237,6917.833,95.437,540.4,538.997,0.0
53257.0,STARLINK-4144,PAYLOAD,2023-02-10 13:54:52,15.0883383,9.69e-05,53.2185,195.9502,81.9636,278.1466,-9.3169e-06,-4.36e-06,0.0,0 STARLINK-4144,1 53257U 22086R   23041.57977207 -.00000436  00000-0 -93169-5 0  9992,2 53257  53.2185 195.9502 0000969  81.9636 278.1466 15.08833830 31339,6917.899,95.438,540.435,539.094,0.0
53257.0,STARLINK-4144,PAYLOAD,2023-02-10 18:41:01,15.08851619,0.000107,53.2181,195.0572,96.0255,264.0859,0.00030007,4.492e-05,0.0,0 STARLINK-4144,1 53257U 22086R   23041.77848514  .00004492  00000-0  30007-3 0  9996,2 53257  53.2181 195.0572 0001070  96.0255 264.0859 15.08851619 31369,6917.845,95.437,540.45,538.97,0.0
53257.0,STARLINK-4144,PAYLOAD,2023-02-10 20:16:24,15.08854778,0.0001106,53.2182,194.7595,99.6462,260.4656,0.00037342,5.662e-05,0.0,0 STARLINK-4144,1 53257U 22086R   23041.84472351  .00005662  00000-0  37342-3 0  9995,2 53257  53.2182 194.7595 0001106  99.6462 260.4656 15.08854778 31555,6917.835,95.437,540.465,538.935,0.0
53257.0,STARLINK-4144,PAYLOAD,2023-02-11 02:37:56,15.08838865,4.1e-05,53.2195,193.5713,165.7635,194.3369,-2.802e-05,-7.33e-06,0.0,0 STARLINK-4144,1 53257U 22086R   23042.10968541 -.00000733  00000-0 -28020-4 0  9996,2 53257  53.2195 193.5713 0000410 165.7635 194.3369 15.08838865 31412,6917.884,95.438,540.032,539.465,0.0
53257.0,STARLINK-4144,PAYLOAD,2023-02-11 12:10:16,15.08834986,0.0001325,53.217,191.7861,86.4346,273.6798,-8.0342e-05,-1.566e-05,0.0,0 STARLINK-4144,1 53257U 22086R   23042.50713163 -.00001566  00000-0 -80342-4 0  9998,2 53257  53.2170 191.7861 0001325  86.4346 273.6798 15.08834986 31656,6917.896,95.438,540.677,538.844,0.0
53257.0,STARLINK-4144,PAYLOAD,2023-02-11 20:07:11,15.08848413,0.0001368,53.2185,190.3003,98.0215,262.0933,0.00035444,5.359e-05,0.0,0 STARLINK-4144,1 53257U 22086R   23042.83832807  .00005359  00000-0  35444-3 0  9995,2 53257  53.2185 190.3003 0001368  98.0215 262.0933 15.08848413 31705,6917.855,95.437,540.666,538.773,0.0
53257.0,STARLINK-4144,PAYLOAD,2023-02-12 02:28:44,15.08827334,0.0001668,53.2177,189.1097,90.5363,269.5821,-8.9077e-05,-1.705e-05,0.0,0 STARLINK-4144,1 53257U 22086R   23043.10329694 -.00001705  00000-0 -89077-4 0  9996,2 53257  53.2177 189.1097 0001668  90.5363 269.5821 15.08827334 31560,6917.919,95.438,540.938,538.63,0.0
53257.0,STARLINK-4144,PAYLOAD,2023-02-12 18:22:36,15.08850004,0.0003172,53.2176,186.136,86.3207,273.8148,0.00098164,0.00015374,0.0,0 STARLINK-4144,1 53257U 22086R   23043.76570257  .00015374  00000-0  98164-3 0  9992,2 53257  53.2176 186.1360 0003172  86.3207 273.8148 15.08850004 31662,6917.85,95.437,541.909,537.52,0.0
53257.0,STARLINK-4144,PAYLOAD,2023-02-13 02:19:32,15.0885003,0.000229,53.2171,184.6498,80.1061,280.019,0.0011068,0.00017376,0.0,0 STARLINK-4144,1 53257U 22086R   23044.09690136  .00017376  00000-0  11068-2 0  9999,2 53257  53.2171 184.6498 0002290  80.1061 280.0190 15.08850030 31714,6917.85,95.437,541.299,538.131,0.0
53257.0,STARLINK-4144,PAYLOAD,2023-02-14 02:10:18,15.0881433,5.41e-05,53.2168,180.1904,96.8505,263.2549,0.0012469,0.00019598,0.0,0 STARLINK-4144,1 53257U 22086R   23045.09049088  .00019598  00000-0  12469-2 0  9998,2 53257  53.2168 180.1904 0000541  96.8505 263.2549 15.08814330 31867,6917.959,95.439,540.198,539.45,0.0
53257.0,STARLINK-4144,PAYLOAD,2023-02-14 14:53:23,15.08849793,9.36e-05,53.217,177.8105,96.9685,263.1413,0.0021193,0.00033611,0.0,0 STARLINK-4144,1 53257U 22086R   23045.62041564  .00033611  00000-0  21193-2 0  9994,2 53257  53.2170 177.8105 0000936  96.9685 263.1413 15.08849793 32124,6917.85,95.437,540.363,539.068,0.0
53257.0,STARLINK-4144,PAYLOAD,2023-02-15 02:01:05,15.08841846,0.0001329,53.2165,175.7292,84.1525,275.9618,-7.5416e-05,-1.488e-05,0.0,0 STARLINK-4144,1 53257U 22086R   23046.08409545 -.00001488  00000-0 -75416-4 0  9990,2 53257  53.2165 175.7292 0001329  84.1525 275.9618 15.08841846 32018,6917.875,95.437,540.659,538.82,0.0
53257.0,STARLINK-4144,PAYLOAD,2023-02-15 14:44:10,15.08874272,0.0001164,53.2167,173.3504,71.4857,288.6262,0.0032355,0.00051631,0.0,0 STARLINK-4144,1 53257U 22086R   23046.61401270  .00051631  00000-0  32355-2 0  9992,2 53257  53.2167 173.3504 0001164  71.4857 288.6262 15.08874272 32277,6917.776,95.435,540.446,538.835,0.0
53257.0,STARLINK-4144,PAYLOAD,2023-02-15 19:30:19,15.08898537,0.0001371,53.2154,172.4589,68.1166,291.9972,0.0036625,0.00058579,0.0,0 STARLINK-4144,1 53257U 22086R   23046.81272700  .00058579  00000-0  36625-2 0  9990,2 53257  53.2154 172.4589 0001371  68.1166 291.9972 15.08898537 32121,6917.701,95.434,540.515,538.618,0.0
53257.0,STARLINK-4144,PAYLOAD,2023-02-16 12:59:33,15.08881143,0.0001224,53.2158,169.1863,102.2115,257.9014,0.002798,0.00044574,0.0,0 STARLINK-4144,1 53257U 22086R   23047.54136234  .00044574  00000-0  27980-2 0  9996,2 53257  53.2158 169.1863 0001224 102.2115 257.9014 15.08881143 32230,6917.755,95.435,540.466,538.773,0.0
53257.0,STARLINK-4144,PAYLOAD,2023-02-16 17:45:42,15.08893024,0.0001226,53.2174,168.2961,77.5739,282.5391,0.003065,0.00048901,0.0,0 STARLINK-4144,1 53257U 22086R   23047.74007871  .00048901  00000-0  30650-2 0  9998,2 53257  53.2174 168.2961 0001226  77.5739 282.5391 15.08893024 32441,6917.718,95.434,540.431,538.735,0.0
53257.0,STARLINK-4144,PAYLOAD,2023-02-17 14:25:45,15.08816121,6.53e-05,53.217,164.4302,113.6311,246.475,0.0024696,0.00039209,0.0,0 STARLINK-4144,1 53257U 22086R   23048.60121893  .00039209  00000-0  24696-2 0  9999,2 53257  53.2170 164.4302 0000653 113.6311 246.4750 15.08816121 32390,6917.953,95.439,540.27,539.367,0.0
53257.0,STARLINK-4144,PAYLOAD,2023-02-17 19:11:54,15.08826586,9.64e-05,53.2174,163.5384,109.7385,250.3711,0.0017635,0.00027879,0.0,0 STARLINK-4144,1 53257U 22086R   23048.79994160  .00027879  00000-0  17635-2 0  9999,2 53257  53.2174 163.5384 0000964 109.7385 250.3711 15.08826586 32607,6917.921,95.438,540.453,539.12,0.0
53257.0,STARLINK-4144,PAYLOAD,2023-02-18 14:16:32,15.08844056,0.0001106,53.2172,159.9703,104.8402,255.2712,0.001025,0.00016064,0.0,0 STARLINK-4144,1 53257U 22086R   23049.59482582  .00016064  00000-0  10250-2 0  9998,2 53257  53.2172 159.9703 0001106 104.8402 255.2712 15.08844056 32724,6917.868,95.437,540.498,538.968,0.0
53257.0,STARLINK-4144,PAYLOAD,2023-02-18 17:27:19,15.08858216,9.55e-05,53.218,159.3765,98.1838,261.9262,0.0016567,0.0002619,0.0,0 STARLINK-4144,1 53257U 22086R   23049.72730475  .00026190  00000-0  16567-2 0  9998,2 53257  53.2180 159.3765 0000955  98.1838 261.9262 15.08858216 32563,6917.825,95.436,540.35,539.029,0.0
53257.0,STARLINK-4144,PAYLOAD,2023-02-18 23:48:51,15.08844231,0.0001183,53.2189,158.1868,93.642,266.4707,0.00018723,2.694e-05,0.0,0 STARLINK-4144,1 53257U 22086R   23049.99226597  .00002694  00000-0  18723-3 0  9992,2 53257  53.2189 158.1868 0001183  93.6420 266.4707 15.08844231 32605,6917.867,95.437,540.551,538.914,0.0
